{
  "type": "FeatureCollection",
  "features": [
    {
      "type": "Feature",
      "properties": {
        "norad_id": 35915,
        "name": "IRIDIUM 33 DEB",
        "group": "iridium-33-debris",
        "lat": 81.16370883240401,
        "lon": 135.07210963875113,
        "alt_km": 615.1333665056472,
        "timestamp": "2025-12-20T14:38:02.354839+00:00",
        "meta_object_name": "IRIDIUM 33 DEB",
        "meta_object_id": "1997-051TY",
        "meta_epoch": "2025-12-15T17:25:35.441760",
        "meta_mean_motion": 14.80816607,
        "meta_eccentricity": 0.00112544,
        "meta_inclination": 86.3436,
        "meta_ra_of_asc_node": 341.593,
        "meta_arg_of_pericenter": 174.6839,
        "meta_mean_anomaly": 185.4504,
        "meta_ephemeris_type": 0,
        "meta_classification_type": "U",
        "meta_norad_cat_id": 35915,
        "meta_element_set_no": 999,
        "meta_rev_at_epoch": 8130,
        "meta_bstar": 0.0011378054,
        "meta_mean_motion_dot": 8.81e-05,
        "meta_mean_motion_ddot": 0,
        "tle_line1": "1 35915U 97051TY  25349.72610465  .00008810  00000+0  11378-2 0  9997",
        "tle_line2": "2 35915  86.3436 341.5930 0011254 174.6839 185.4504 14.80816607 81301"
      },
      "geometry": {
        "type": "Point",
        "coordinates": [
          135.07210963875113,
          81.16370883240401
        ]
      }
    },
    {
      "type": "Feature",
      "properties": {
        "norad_id": 35918,
        "name": "IRIDIUM 33 DEB",
        "group": "iridium-33-debris",
        "lat": 42.865423260335795,
        "lon": -110.91035746448345,
        "alt_km": 698.0431716609473,
        "timestamp": "2025-12-20T14:38:02.354849+00:00",
        "meta_object_name": "IRIDIUM 33 DEB",
        "meta_object_id": "1997-051UB",
        "meta_epoch": "2025-12-19T23:40:47.068896",
        "meta_mean_motion": 14.51300512,
        "meta_eccentricity": 0.0028255,
        "meta_inclination": 86.4011,
        "meta_ra_of_asc_node": 72.7058,
        "meta_arg_of_pericenter": 146.3129,
        "meta_mean_anomaly": 337.2961,
        "meta_ephemeris_type": 0,
        "meta_classification_type": "U",
        "meta_norad_cat_id": 35918,
        "meta_element_set_no": 999,
        "meta_rev_at_epoch": 85312,
        "meta_bstar": 0.00067099,
        "meta_mean_motion_dot": 2.704e-05,
        "meta_mean_motion_ddot": 0,
        "tle_line1": "1 35918U 97051UB  25353.98665589  .00002704  00000+0  67099-3 0  9998",
        "tle_line2": "2 35918  86.4011  72.7058 0028255 146.3129 337.2961 14.51300512853127"
      },
      "geometry": {
        "type": "Point",
        "coordinates": [
          -110.91035746448345,
          42.865423260335795
        ]
      }
    },
    {
      "type": "Feature",
      "properties": {
        "norad_id": 35929,
        "name": "IRIDIUM 33 DEB",
        "group": "iridium-33-debris",
        "lat": -81.05257118289288,
        "lon": 152.93262233272802,
        "alt_km": 569.3673752130189,
        "timestamp": "2025-12-20T14:38:02.354859+00:00",
        "meta_object_name": "IRIDIUM 33 DEB",
        "meta_object_id": "1997-051UN",
        "meta_epoch": "2025-12-19T03:54:47.819808",
        "meta_mean_motion": 15.02824577,
        "meta_eccentricity": 0.00169983,
        "meta_inclination": 86.3333,
        "meta_ra_of_asc_node": 309.5832,
        "meta_arg_of_pericenter": 16.9141,
        "meta_mean_anomaly": 343.2656,
        "meta_ephemeris_type": 0,
        "meta_classification_type": "U",
        "meta_norad_cat_id": 35929,
        "meta_element_set_no": 999,
        "meta_rev_at_epoch": 87876,
        "meta_bstar": 0.0020745591,
        "meta_mean_motion_dot": 0.00027961,
        "meta_mean_motion_ddot": 0,
        "tle_line1": "1 35929U 97051UN  25353.16305347  .00027961  00000+0  20746-2 0  9992",
        "tle_line2": "2 35929  86.3333 309.5832 0016998  16.9141 343.2656 15.02824577878767"
      },
      "geometry": {
        "type": "Point",
        "coordinates": [
          152.93262233272802,
          -81.05257118289288
        ]
      }
    },
    {
      "type": "Feature",
      "properties": {
        "norad_id": 36011,
        "name": "IRIDIUM 33 DEB",
        "group": "iridium-33-debris",
        "lat": -84.92410202254075,
        "lon": -101.86729652302245,
        "alt_km": 758.4861370210037,
        "timestamp": "2025-12-20T14:38:02.354869+00:00",
        "meta_object_name": "IRIDIUM 33 DEB",
        "meta_object_id": "1997-051US",
        "meta_epoch": "2025-12-11T21:42:29.079072",
        "meta_mean_motion": 14.41326157,
        "meta_eccentricity": 0.0017563,
        "meta_inclination": 86.3411,
        "meta_ra_of_asc_node": 35.7829,
        "meta_arg_of_pericenter": 218.6873,
        "meta_mean_anomaly": 266.0791,
        "meta_ephemeris_type": 0,
        "meta_classification_type": "U",
        "meta_norad_cat_id": 36011,
        "meta_element_set_no": 999,
        "meta_rev_at_epoch": 64528,
        "meta_bstar": 0.00076231,
        "meta_mean_motion_dot": 2.489e-05,
        "meta_mean_motion_ddot": 0,
        "tle_line1": "1 36011U 97051US  25345.90450323  .00002489  00000+0  76231-3 0  9992",
        "tle_line2": "2 36011  86.3411  35.7829 0017563 218.6873 266.0791 14.41326157645287"
      },
      "geometry": {
        "type": "Point",
        "coordinates": [
          -101.86729652302245,
          -84.92410202254075
        ]
      }
    },
    {
      "type": "Feature",
      "properties": {
        "norad_id": 36012,
        "name": "IRIDIUM 33 DEB",
        "group": "iridium-33-debris",
        "lat": -75.35620930720745,
        "lon": -69.4157155383177,
        "alt_km": 728.7270710254807,
        "timestamp": "2025-12-20T14:38:02.354880+00:00",
        "meta_object_name": "IRIDIUM 33 DEB",
        "meta_object_id": "1997-051UT",
        "meta_epoch": "2025-12-20T03:08:37.827168",
        "meta_mean_motion": 14.1919508,
        "meta_eccentricity": 0.02112311,
        "meta_inclination": 86.442,
        "meta_ra_of_asc_node": 304.5525,
        "meta_arg_of_pericenter": 239.4211,
        "meta_mean_anomaly": 118.5989,
        "meta_ephemeris_type": 0,
        "meta_classification_type": "U",
        "meta_norad_cat_id": 36012,
        "meta_element_set_no": 999,
        "meta_rev_at_epoch": 65589,
        "meta_bstar": 0.0028908403,
        "meta_mean_motion_dot": 7.582e-05,
        "meta_mean_motion_ddot": 0,
        "tle_line1": "1 36012U 97051UT  25354.13099337  .00007582  00000+0  28908-2 0  9998",
        "tle_line2": "2 36012  86.4420 304.5525 0211231 239.4211 118.5989 14.19195080655896"
      },
      "geometry": {
        "type": "Point",
        "coordinates": [
          -69.4157155383177,
          -75.35620930720745
        ]
      }
    },
    {
      "type": "Feature",
      "properties": {
        "norad_id": 36028,
        "name": "IRIDIUM 33 DEB",
        "group": "iridium-33-debris",
        "lat": 5.090472185267464,
        "lon": -56.67638006051391,
        "alt_km": 569.4607483967484,
        "timestamp": "2025-12-20T14:38:02.354890+00:00",
        "meta_object_name": "IRIDIUM 33 DEB",
        "meta_object_id": "1997-051VK",
        "meta_epoch": "2025-12-19T03:17:05.091936",
        "meta_mean_motion": 14.95591145,
        "meta_eccentricity": 0.00208389,
        "meta_inclination": 86.3218,
        "meta_ra_of_asc_node": 303.6882,
        "meta_arg_of_pericenter": 33.6007,
        "meta_mean_anomaly": 326.6539,
        "meta_ephemeris_type": 0,
        "meta_classification_type": "U",
        "meta_norad_cat_id": 36028,
        "meta_element_set_no": 999,
        "meta_rev_at_epoch": 87220,
        "meta_bstar": 0.001783846,
        "meta_mean_motion_dot": 0.00019939,
        "meta_mean_motion_ddot": 0,
        "tle_line1": "1 36028U 97051VK  25353.13686449  .00019939  00000+0  17838-2 0  9999",
        "tle_line2": "2 36028  86.3218 303.6882 0020838  33.6007 326.6539 14.95591145872206"
      },
      "geometry": {
        "type": "Point",
        "coordinates": [
          -56.67638006051391,
          5.090472185267464
        ]
      }
    },
    {
      "type": "Feature",
      "properties": {
        "norad_id": 36080,
        "name": "IRIDIUM 33 DEB",
        "group": "iridium-33-debris",
        "lat": -78.21505658461989,
        "lon": -13.412376864204072,
        "alt_km": 755.6809633110079,
        "timestamp": "2025-12-20T14:38:02.354900+00:00",
        "meta_object_name": "IRIDIUM 33 DEB",
        "meta_object_id": "1997-051VM",
        "meta_epoch": "2025-12-19T07:27:26.572608",
        "meta_mean_motion": 14.4663152,
        "meta_eccentricity": 0.0018893,
        "meta_inclination": 86.3193,
        "meta_ra_of_asc_node": 5.1242,
        "meta_arg_of_pericenter": 135.9522,
        "meta_mean_anomaly": 224.319,
        "meta_ephemeris_type": 0,
        "meta_classification_type": "U",
        "meta_norad_cat_id": 36080,
        "meta_element_set_no": 999,
        "meta_rev_at_epoch": 47509,
        "meta_bstar": 0.00042458,
        "meta_mean_motion_dot": 1.555e-05,
        "meta_mean_motion_ddot": 0,
        "tle_line1": "1 36080U 97051VM  25353.31072422  .00001555  00000+0  42458-3 0  9999",
        "tle_line2": "2 36080  86.3193   5.1242 0018893 135.9522 224.3190 14.46631520475097"
      },
      "geometry": {
        "type": "Point",
        "coordinates": [
          -13.412376864204072,
          -78.21505658461989
        ]
      }
    }
  ]
}